XRISM                   
1 57800U 23137A   23291.95288560  .00005666  00000+0  45838-3 0  9999
2 57800  31.0022 110.8773 0010430 331.8711  28.1359 14.98279279  6292
